{
  "type": "FeatureCollection",
  "features": [
    {
      "type": "Feature",
      "properties": {
        "norad_id": 37003,
        "name": "FENGYUN 1C DEB",
        "group": "fengyun-1c-debris",
        "lat": 2.619714892542142,
        "lon": -172.92175059939302,
        "alt_km": 839.1591441241644,
        "timestamp": "2025-12-08T21:31:04.956500+00:00",
        "meta_object_name": "FENGYUN 1C DEB",
        "meta_object_id": "1999-025ECK",
        "meta_epoch": "2025-12-07T19:43:22.662048",
        "meta_mean_motion": 13.96208426,
        "meta_eccentricity": 0.00967817,
        "meta_inclination": 98.8462,
        "meta_ra_of_asc_node": 5.6372,
        "meta_arg_of_pericenter": 175.775,
        "meta_mean_anomaly": 2.0334,
        "meta_ephemeris_type": 0,
        "meta_classification_type": "U",
        "meta_norad_cat_id": 37003,
        "meta_element_set_no": 999,
        "meta_rev_at_epoch": 60588,
        "meta_bstar": 0.0012256933,
        "meta_mean_motion_dot": 1.711e-05,
        "meta_mean_motion_ddot": 0,
        "tle_line1": "1 37003U 99025ECK 25341.82179007  .00001711  00000+0  12257-2 0  9995",
        "tle_line2": "2 37003  98.8462   5.6372 0096781 175.7750   2.0334 13.96208426605888"
      },
      "geometry": {
        "type": "Point",
        "coordinates": [
          -172.92175059939302,
          2.619714892542142
        ]
      }
    },
    {
      "type": "Feature",
      "properties": {
        "norad_id": 37006,
        "name": "FENGYUN 1C DEB",
        "group": "fengyun-1c-debris",
        "lat": 50.263210126512746,
        "lon": 62.43303547997892,
        "alt_km": 840.8865235999356,
        "timestamp": "2025-12-08T21:31:04.956510+00:00",
        "meta_object_name": "FENGYUN 1C DEB",
        "meta_object_id": "1999-025ECN",
        "meta_epoch": "2025-12-06T22:29:36.867264",
        "meta_mean_motion": 14.48820343,
        "meta_eccentricity": 0.02555667,
        "meta_inclination": 99.2984,
        "meta_ra_of_asc_node": 228.9078,
        "meta_arg_of_pericenter": 265.4135,
        "meta_mean_anomaly": 91.7825,
        "meta_ephemeris_type": 0,
        "meta_classification_type": "U",
        "meta_norad_cat_id": 37006,
        "meta_element_set_no": 999,
        "meta_rev_at_epoch": 65030,
        "meta_bstar": 0.0012906883,
        "meta_mean_motion_dot": 7.334e-05,
        "meta_mean_motion_ddot": 0,
        "tle_line1": "1 37006U 99025ECN 25340.93723226  .00007334  00000+0  12907-2 0  9996",
        "tle_line2": "2 37006  99.2984 228.9078 0255566 265.4135  91.7825 14.48820343650303"
      },
      "geometry": {
        "type": "Point",
        "coordinates": [
          62.43303547997892,
          50.263210126512746
        ]
      }
    },
    {
      "type": "Feature",
      "properties": {
        "norad_id": 37008,
        "name": "FENGYUN 1C DEB",
        "group": "fengyun-1c-debris",
        "lat": 19.058480214552738,
        "lon": 98.51548313630776,
        "alt_km": 885.407177614039,
        "timestamp": "2025-12-08T21:31:04.956520+00:00",
        "meta_object_name": "FENGYUN 1C DEB",
        "meta_object_id": "1999-025ECQ",
        "meta_epoch": "2025-12-06T18:15:29.665728",
        "meta_mean_motion": 14.07893921,
        "meta_eccentricity": 0.00615181,
        "meta_inclination": 99.1355,
        "meta_ra_of_asc_node": 99.5419,
        "meta_arg_of_pericenter": 270.1561,
        "meta_mean_anomaly": 89.2559,
        "meta_ephemeris_type": 0,
        "meta_classification_type": "U",
        "meta_norad_cat_id": 37008,
        "meta_element_set_no": 999,
        "meta_rev_at_epoch": 60230,
        "meta_bstar": 0.0023851365,
        "meta_mean_motion_dot": 4.074e-05,
        "meta_mean_motion_ddot": 0,
        "tle_line1": "1 37008U 99025ECQ 25340.76076002  .00004074  00000+0  23851-2 0  9990",
        "tle_line2": "2 37008  99.1355  99.5419 0061518 270.1561  89.2559 14.07893921602305"
      },
      "geometry": {
        "type": "Point",
        "coordinates": [
          98.51548313630776,
          19.058480214552738
        ]
      }
    },
    {
      "type": "Feature",
      "properties": {
        "norad_id": 37017,
        "name": "FENGYUN 1C DEB",
        "group": "fengyun-1c-debris",
        "lat": -67.14273285751416,
        "lon": 85.76176378710386,
        "alt_km": 884.2482551262792,
        "timestamp": "2025-12-08T21:31:04.956530+00:00",
        "meta_object_name": "FENGYUN 1C DEB",
        "meta_object_id": "1999-025ECZ",
        "meta_epoch": "2025-12-07T02:41:07.464480",
        "meta_mean_motion": 14.40523067,
        "meta_eccentricity": 0.02833122,
        "meta_inclination": 98.7906,
        "meta_ra_of_asc_node": 285.4621,
        "meta_arg_of_pericenter": 21.9505,
        "meta_mean_anomaly": 339.354,
        "meta_ephemeris_type": 0,
        "meta_classification_type": "U",
        "meta_norad_cat_id": 37017,
        "meta_element_set_no": 999,
        "meta_rev_at_epoch": 61080,
        "meta_bstar": 0.0027949354,
        "meta_mean_motion_dot": 0.00014313,
        "meta_mean_motion_ddot": 0,
        "tle_line1": "1 37017U 99025ECZ 25341.11189195  .00014313  00000+0  27949-2 0  9997",
        "tle_line2": "2 37017  98.7906 285.4621 0283312  21.9505 339.3540 14.40523067610802"
      },
      "geometry": {
        "type": "Point",
        "coordinates": [
          85.76176378710386,
          -67.14273285751416
        ]
      }
    },
    {
      "type": "Feature",
      "properties": {
        "norad_id": 37021,
        "name": "FENGYUN 1C DEB",
        "group": "fengyun-1c-debris",
        "lat": 68.85565154103814,
        "lon": -157.88601656834814,
        "alt_km": 889.883980039861,
        "timestamp": "2025-12-08T21:31:04.956540+00:00",
        "meta_object_name": "FENGYUN 1C DEB",
        "meta_object_id": "1999-025EDD",
        "meta_epoch": "2025-12-04T08:05:12.810048",
        "meta_mean_motion": 14.32214059,
        "meta_eccentricity": 0.0175512,
        "meta_inclination": 98.3859,
        "meta_ra_of_asc_node": 355.2821,
        "meta_arg_of_pericenter": 276.8323,
        "meta_mean_anomaly": 97.3533,
        "meta_ephemeris_type": 0,
        "meta_classification_type": "U",
        "meta_norad_cat_id": 37021,
        "meta_element_set_no": 999,
        "meta_rev_at_epoch": 69934,
        "meta_bstar": 0.0015095,
        "meta_mean_motion_dot": 4.777e-05,
        "meta_mean_motion_ddot": 0,
        "tle_line1": "1 37021U 99025EDD 25338.33695382  .00004777  00000+0  15095-2 0  9994",
        "tle_line2": "2 37021  98.3859 355.2821 0175512 276.8323  97.3533 14.32214059699347"
      },
      "geometry": {
        "type": "Point",
        "coordinates": [
          -157.88601656834814,
          68.85565154103814
        ]
      }
    },
    {
      "type": "Feature",
      "properties": {
        "norad_id": 37028,
        "name": "FENGYUN 1C DEB",
        "group": "fengyun-1c-debris",
        "lat": -68.44595843039664,
        "lon": 46.07538500367379,
        "alt_km": 841.92770905219,
        "timestamp": "2025-12-08T21:31:04.956550+00:00",
        "meta_object_name": "FENGYUN 1C DEB",
        "meta_object_id": "1999-025EDL",
        "meta_epoch": "2025-12-08T11:54:28.510848",
        "meta_mean_motion": 14.22687882,
        "meta_eccentricity": 0.00329376,
        "meta_inclination": 99.2457,
        "meta_ra_of_asc_node": 250.0094,
        "meta_arg_of_pericenter": 110.3113,
        "meta_mean_anomaly": 250.1608,
        "meta_ephemeris_type": 0,
        "meta_classification_type": "U",
        "meta_norad_cat_id": 37028,
        "meta_element_set_no": 999,
        "meta_rev_at_epoch": 60415,
        "meta_bstar": 0.0024406499,
        "meta_mean_motion_dot": 5.45e-05,
        "meta_mean_motion_ddot": 0,
        "tle_line1": "1 37028U 99025EDL 25342.49616332  .00005450  00000+0  24406-2 0  9996",
        "tle_line2": "2 37028  99.2457 250.0094 0032937 110.3113 250.1608 14.22687882604158"
      },
      "geometry": {
        "type": "Point",
        "coordinates": [
          46.07538500367379,
          -68.44595843039664
        ]
      }
    },
    {
      "type": "Feature",
      "properties": {
        "norad_id": 37036,
        "name": "FENGYUN 1C DEB",
        "group": "fengyun-1c-debris",
        "lat": -80.05201720233501,
        "lon": 36.753600398485894,
        "alt_km": 967.5441052892238,
        "timestamp": "2025-12-08T21:31:04.956561+00:00",
        "meta_object_name": "FENGYUN 1C DEB",
        "meta_object_id": "1999-025EDU",
        "meta_epoch": "2025-12-05T16:56:11.377536",
        "meta_mean_motion": 14.03551942,
        "meta_eccentricity": 0.01242877,
        "meta_inclination": 98.7131,
        "meta_ra_of_asc_node": 332.7285,
        "meta_arg_of_pericenter": 74.8447,
        "meta_mean_anomaly": 286.6428,
        "meta_ephemeris_type": 0,
        "meta_classification_type": "U",
        "meta_norad_cat_id": 37036,
        "meta_element_set_no": 999,
        "meta_rev_at_epoch": 63649,
        "meta_bstar": 0.00074827918,
        "meta_mean_motion_dot": 1.216e-05,
        "meta_mean_motion_ddot": 0,
        "tle_line1": "1 37036U 99025EDU 25339.70568724  .00001216  00000+0  74828-3 0  9996",
        "tle_line2": "2 37036  98.7131 332.7285 0124287  74.8447 286.6428 14.03551942636496"
      },
      "geometry": {
        "type": "Point",
        "coordinates": [
          36.753600398485894,
          -80.05201720233501
        ]
      }
    }
  ]
}